GLOBALSTAR M068 [-]     
1 32266U 07048D   24038.37580778 -.00000065  00000+0  21423-3 0  9996
2 32266  51.9912  13.5972 0001036 113.3759  51.1835 12.62778124754913
GLOBALSTAR M079 [+]     
1 37188U 10054A   24038.71212615 -.00000098  00000+0  33492-4 0  9991
2 37188  52.0012 208.0915 0000749  89.7827 283.8331 12.62266361614560
GLOBALSTAR M074 [+]     
1 37189U 10054B   24038.42223444 -.00000095  00000+0  48735-4 0  9995
2 37189  51.9990 208.3739 0001030  94.6336 280.6832 12.62265228614455
GLOBALSTAR M076 [+]     
1 37190U 10054C   24038.76524240 -.00000085  00000+0  10426-3 0  9996
2 37190  52.0004 207.4581 0001023  63.5606 309.6323 12.62274653614579
GLOBALSTAR M077 [+]     
1 37191U 10054D   24038.59346051 -.00000111  00000+0 -40716-4 0  9997
2 37191  52.0061 164.6928 0000983 105.2455 267.3686 12.62269280614563
GLOBALSTAR M075 [+]     
1 37192U 10054E   24038.87771692 -.00000069  00000+0  19428-3 0  9998
2 37192  51.9925 249.6500 0000784  79.8774  24.9615 12.62270565613825
GLOBALSTAR M073 [+]     
1 37193U 10054F   24038.61942388 -.00000119  00000+0 -84201-4 0  9992
2 37193  52.0050 163.8706 0000878 105.2256 267.6038 12.62271998615250
GLOBALSTAR M083 [+]     
1 37739U 11033A   24038.47452690 -.00000104  00000+0 -44187-6 0  9997
2 37739  51.9854 113.7226 0000709 140.4800 233.0950 12.62265644584252
GLOBALSTAR M088 [+]     
1 37740U 11033B   24038.14598161 -.00000100  00000+0  23417-4 0  9993
2 37740  51.9757  20.6308 0000128 144.0178 296.4543 12.62264569579751
GLOBALSTAR M091 [+]     
1 37741U 11033C   24038.62899028 -.00000091  00000+0  68852-4 0  9994
2 37741  52.0025 341.8305 0000136  68.9865 346.9563 12.62270791580864
GLOBALSTAR M085 [+]     
1 37742U 11033D   24038.48283579 -.00000062  00000+0  23379-3 0  9999
2 37742  51.9873 293.7555 0000483  70.7030 100.3306 12.62267516581090
GLOBALSTAR M081 [+]     
1 37743U 11033E   24038.42992411 -.00000066  00000+0  20964-3 0  9997
2 37743  51.9965 296.3969 0000451  42.0012 128.8689 12.62269237581235
GLOBALSTAR M089 [+]     
1 37744U 11033F   24038.51246120 -.00000067  00000+0  20279-3 0  9997
2 37744  51.9906 250.4650 0001033  62.1957 304.2306 12.62254222582096
GLOBALSTAR M084 [+]     
1 38040U 11080A   24038.52727889 -.00000097  00000+0  35677-4 0  9998
2 38040  52.0005 117.4439 0000774  96.3988 276.4836 12.62270637560079
GLOBALSTAR M080 [+]     
1 38041U 11080B   24038.50120808 -.00000102  00000+0  97441-5 0  9990
2 38041  52.0055 118.9566 0000690  83.9123 289.8863 12.62268684560192
GLOBALSTAR M082 [+]     
1 38042U 11080C   24038.86554718 -.00000089  00000+0  80163-4 0  9997
2 38042  52.0078  73.2406 0000897 158.9914  11.8285 12.62265750561119
GLOBALSTAR M092 [+]     
1 38043U 11080D   24038.64643200 -.00000108  00000+0 -22675-4 0  9996
2 38043  52.0075 164.2595 0001096  99.1954 273.7141 12.62276328559377
GLOBALSTAR M090 [+]     
1 38044U 11080E   24038.38201584 -.00000083  00000+0  11574-3 0  9999
2 38044  51.9888  69.1585 0000548 149.8004 223.5974 12.62265945561003
GLOBALSTAR M086 [+]     
1 38045U 11080F   24038.40894142 -.00000085  00000+0  10465-3 0  9991
2 38045  51.9899  69.5899 0000526 295.8628  79.2076 12.62266975560954
GLOBALSTAR M097 [+]     
1 39072U 13005A   24038.59022883 -.00000100  00000+0  20216-4 0  9990
2 39072  52.0075 343.0811 0000155  56.6122 303.4759 12.62260375508227
GLOBALSTAR M093 [+]     
1 39073U 13005B   24038.00942661 -.00000089  00000+0  79840-4 0  9995
2 39073  51.9840 338.9462 0000085  27.7304 332.3567 12.62260581508108
GLOBALSTAR M094 [+]     
1 39074U 13005C   24038.32625013 -.00000052  00000+0  28942-3 0  9996
2 39074  51.9937 251.8683 0000689  78.6320 281.4624 12.62262911509756
GLOBALSTAR M096 [+]     
1 39075U 13005D   24038.41882316 -.00000067  00000+0  20571-3 0  9994
2 39075  52.0083 299.7165 0000380  55.7344 304.3559 12.62272241508687
GLOBALSTAR M078 [+]     
1 39076U 13005E   24038.63016997 -.00000101  00000+0  13898-4 0  9997
2 39076  51.9893  24.2541 0001144 145.4840 214.6101 12.62259630507548
GLOBALSTAR M095 [+]     
1 39077U 13005F   24038.33939291 -.00000100  00000+0  22459-4 0  9998
2 39077  51.9822  22.5799 0000600 173.2646 186.8228 12.62262987507152
GLOBALSTAR M087 [+]     
1 52888U 22064A   24038.41813621 -.00000066  00000+0  11823-3 0  9998
2 52888  51.9769 304.3663 0010025  35.1172 325.0387 13.37564528 80024
